[{"OBJECT_NAME":"WILDFIRE 1","OBJECT_ID":"2023-133H","EPOCH":"2026-03-09T14:37:46.070400","MEAN_MOTION":13.8571565,"ECCENTRICITY":0.0005359,"INCLINATION":80.9966,"RA_OF_ASC_NODE":102.6376,"ARG_OF_PERICENTER":268.5807,"MEAN_ANOMALY":91.4735,"EPHEMERIS_TYPE":0,"CLASSIFICATION_TYPE":"U","NORAD_CAT_ID":57764,"ELEMENT_SET_NO":999,"REV_AT_EPOCH":12726,"BSTAR":9.768e-5,"MEAN_MOTION_DOT":1.23e-6,"MEAN_MOTION_DDOT":0},{"OBJECT_NAME":"FENGYUN 1C DEB","OBJECT_ID":"1999-025CAJ","EPOCH":"2026-03-09T09:35:50.723232","MEAN_MOTION":13.87309807,"ECCENTRICITY":0.01704465,"INCLINATION":102.2713,"RA_OF_ASC_NODE":315.0166,"ARG_OF_PERICENTER":12.2345,"MEAN_ANOMALY":348.2862,"EPHEMERIS_TYPE":0,"CLASSIFICATION_TYPE":"U","NORAD_CAT_ID":31628,"ELEMENT_SET_NO":999,"REV_AT_EPOCH":94501,"BSTAR":0.002406594,"MEAN_MOTION_DOT":3.11e-5,"MEAN_MOTION_DDOT":0}]
